start=new Date('2021-09-24T00:00:00.000Z').valueOf();
sats=[{"PERIOD":"95.593","ELEMENT_SET_NO":"999","DECAY_DATE":null,"COUNTRY_CODE":"US","NORAD_CAT_ID":"48364","REF_FRAME":"TEME","APOAPSIS":"548.716","EPHEMERIS_TYPE":"0","BSTAR":"-0.00001784600000","MEAN_ANOMALY":"279.8225","RA_OF_ASC_NODE":"104.2318","OBJECT_TYPE":"PAYLOAD","INCLINATION":"53.0554","REV_AT_EPOCH":"2174","MEAN_MOTION_DOT":"-0.00000548","RCS_SIZE":"LARGE","MEAN_MOTION_DDOT":"0.0000000000000","OBJECT_ID":"2021-038M","GP_ID":"185350890","EPOCH":"2021-09-23T20:32:30.683616","CLASSIFICATION_TYPE":"U","FILE":"3125337","CENTER_NAME":"EARTH","LAUNCH_DATE":"2021-05-04","PERIAPSIS":"545.756","SEMIMAJOR_AXIS":"6925.371","MEAN_MOTION":"15.06392584","OBJECT_NAME":"STARLINK-2611","ARG_OF_PERICENTER":"80.3006","TLE_LINE2":"2 48364  53.0554 104.2318 0002137  80.3006 279.8225 15.06392584 21740","ECCENTRICITY":"0.00021370","SITE":"AFETR","TLE_LINE1":"1 48364U 21038M   21266.85591069 -.00000548  00000-0 -17846-4 0  9998","MEAN_ELEMENT_THEORY":"SGP4","TIME_SYSTEM":"UTC"},{"INCLINATION":"53.0558","OBJECT_TYPE":"PAYLOAD","REV_AT_EPOCH":"2174","RCS_SIZE":"MEDIUM","MEAN_MOTION_DOT":"0.00001224","GP_ID":"185350895","OBJECT_ID":"2021-038N","MEAN_MOTION_DDOT":"0.0000000000000","PERIOD":"95.593","REF_FRAME":"TEME","NORAD_CAT_ID":"48365","COUNTRY_CODE":"US","ELEMENT_SET_NO":"999","DECAY_DATE":null,"BSTAR":"0.00010107000000","EPHEMERIS_TYPE":"0","APOAPSIS":"548.734","RA_OF_ASC_NODE":"104.3306","MEAN_ANOMALY":"272.5020","TLE_LINE2":"2 48365  53.0558 104.3306 0002166  87.6217 272.5020 15.06393409 21749","OBJECT_NAME":"STARLINK-2608","ARG_OF_PERICENTER":"87.6217","SITE":"AFETR","ECCENTRICITY":"0.00021660","TLE_LINE1":"1 48365U 21038N   21266.83476217  .00001224  00000-0  10107-3 0  9996","TIME_SYSTEM":"UTC","MEAN_ELEMENT_THEORY":"SGP4","FILE":"3125337","CLASSIFICATION_TYPE":"U","EPOCH":"2021-09-23T20:02:03.451488","PERIAPSIS":"545.734","LAUNCH_DATE":"2021-05-04","CENTER_NAME":"EARTH","MEAN_MOTION":"15.06393409","SEMIMAJOR_AXIS":"6925.369"},{"MEAN_ELEMENT_THEORY":"SGP4","TIME_SYSTEM":"UTC","TLE_LINE1":"1 48366U 21038P   21266.82229806  .00000936  00000-0  81730-4 0  9996","SITE":"AFETR","ECCENTRICITY":"0.00022220","TLE_LINE2":"2 48366  53.0547  99.3867 0002222  85.5629 274.5613 15.06403834 21801","OBJECT_NAME":"STARLINK-2631","ARG_OF_PERICENTER":"85.5629","MEAN_MOTION":"15.06403834","SEMIMAJOR_AXIS":"6925.337","PERIAPSIS":"545.663","LAUNCH_DATE":"2021-05-04","CENTER_NAME":"EARTH","FILE":"3125337","EPOCH":"2021-09-23T19:44:06.552384","CLASSIFICATION_TYPE":"U","GP_ID":"185349890","OBJECT_ID":"2021-038P","MEAN_MOTION_DDOT":"0.0000000000000","MEAN_MOTION_DOT":"0.00000936","RCS_SIZE":"LARGE","REV_AT_EPOCH":"2180","INCLINATION":"53.0547","OBJECT_TYPE":"PAYLOAD","RA_OF_ASC_NODE":"99.3867","MEAN_ANOMALY":"274.5613","EPHEMERIS_TYPE":"0","BSTAR":"0.00008173000000","APOAPSIS":"548.741","NORAD_CAT_ID":"48366","REF_FRAME":"TEME","ELEMENT_SET_NO":"999","DECAY_DATE":null,"COUNTRY_CODE":"US","PERIOD":"95.592"},{"COUNTRY_CODE":"US","ELEMENT_SET_NO":"999","DECAY_DATE":null,"REF_FRAME":"TEME","NORAD_CAT_ID":"48367","PERIOD":"95.592","MEAN_ANOMALY":"272.6017","RA_OF_ASC_NODE":"99.4049","APOAPSIS":"548.622","BSTAR":"0.00011503000000","EPHEMERIS_TYPE":"0","REV_AT_EPOCH":"2180","OBJECT_TYPE":"PAYLOAD","INCLINATION":"53.0564","MEAN_MOTION_DDOT":"0.0000000000000","OBJECT_ID":"2021-038Q","GP_ID":"185350633","RCS_SIZE":"LARGE","MEAN_MOTION_DOT":"0.00001432","CLASSIFICATION_TYPE":"U","EPOCH":"2021-09-23T19:38:48.378336","FILE":"3125337","SEMIMAJOR_AXIS":"6925.363","MEAN_MOTION":"15.06395415","CENTER_NAME":"EARTH","PERIAPSIS":"545.833","LAUNCH_DATE":"2021-05-04","ECCENTRICITY":"0.00020140","SITE":"AFETR","ARG_OF_PERICENTER":"87.5203","OBJECT_NAME":"STARLINK-2643","TLE_LINE2":"2 48367  53.0564  99.4049 0002014  87.5203 272.6017 15.06395415 21805","MEAN_ELEMENT_THEORY":"SGP4","TIME_SYSTEM":"UTC","TLE_LINE1":"1 48367U 21038Q   21266.81861549  .00001432  00000-0  11503-3 0  9994"},{"REV_AT_EPOCH":"2181","OBJECT_TYPE":"PAYLOAD","INCLINATION":"53.0548","OBJECT_ID":"2021-038R","MEAN_MOTION_DDOT":"0.0000000000000","GP_ID":"185351214","MEAN_MOTION_DOT":"-0.00001290","RCS_SIZE":"LARGE","DECAY_DATE":null,"ELEMENT_SET_NO":"999","COUNTRY_CODE":"US","NORAD_CAT_ID":"48368","REF_FRAME":"TEME","PERIOD":"95.592","MEAN_ANOMALY":"271.5813","RA_OF_ASC_NODE":"99.3240","APOAPSIS":"548.729","EPHEMERIS_TYPE":"0","BSTAR":"-0.00006772600000","ECCENTRICITY":"0.00021710","SITE":"AFETR","ARG_OF_PERICENTER":"88.5425","OBJECT_NAME":"STARLINK-2623","TLE_LINE2":"2 48368  53.0548  99.3240 0002171  88.5425 271.5813 15.06395954 21812","TIME_SYSTEM":"UTC","MEAN_ELEMENT_THEORY":"SGP4","TLE_LINE1":"1 48368U 21038R   21266.83610292 -.00001290  00000-0 -67726-4 0  9997","EPOCH":"2021-09-23T20:03:59.292288","CLASSIFICATION_TYPE":"U","FILE":"3125337","SEMIMAJOR_AXIS":"6925.361","MEAN_MOTION":"15.06395954","CENTER_NAME":"EARTH","LAUNCH_DATE":"2021-05-04","PERIAPSIS":"545.722"},{"COUNTRY_CODE":"US","DECAY_DATE":null,"ELEMENT_SET_NO":"999","REF_FRAME":"TEME","NORAD_CAT_ID":"48369","PERIOD":"95.592","MEAN_ANOMALY":"278.1236","RA_OF_ASC_NODE":"99.4313","APOAPSIS":"548.559","BSTAR":"0.00021192000000","EPHEMERIS_TYPE":"0","REV_AT_EPOCH":"2180","OBJECT_TYPE":"PAYLOAD","INCLINATION":"53.0539","OBJECT_ID":"2021-038S","MEAN_MOTION_DDOT":"0.0000000000000","GP_ID":"185351219","RCS_SIZE":"LARGE","MEAN_MOTION_DOT":"0.00002876","CLASSIFICATION_TYPE":"U","EPOCH":"2021-09-23T19:33:31.305888","FILE":"3125337","SEMIMAJOR_AXIS":"6925.342","MEAN_MOTION":"15.06402217","CENTER_NAME":"EARTH","PERIAPSIS":"545.854","LAUNCH_DATE":"2021-05-04","ECCENTRICITY":"0.00019530","SITE":"AFETR","ARG_OF_PERICENTER":"81.9974","OBJECT_NAME":"STARLINK-2641","TLE_LINE2":"2 48369  53.0539  99.4313 0001953  81.9974 278.1236 15.06402217 21800","TIME_SYSTEM":"UTC","MEAN_ELEMENT_THEORY":"SGP4","TLE_LINE1":"1 48369U 21038S   21266.81494567  .00002876  00000-0  21192-3 0  9996"},{"TLE_LINE2":"2 48370  53.0546  99.4373 0002521  88.3035 271.8243 15.06424949 21801","ARG_OF_PERICENTER":"88.3035","OBJECT_NAME":"STARLINK-2621","SITE":"AFETR","ECCENTRICITY":"0.00025210","TLE_LINE1":"1 48370U 21038T   21266.81121622  .00003829  00000-0  27563-3 0  9994","MEAN_ELEMENT_THEORY":"SGP4","TIME_SYSTEM":"UTC","FILE":"3125337","EPOCH":"2021-09-23T19:28:09.081408","CLASSIFICATION_TYPE":"U","PERIAPSIS":"545.391","LAUNCH_DATE":"2021-05-04","CENTER_NAME":"EARTH","MEAN_MOTION":"15.06424949","SEMIMAJOR_AXIS":"6925.272","INCLINATION":"53.0546","OBJECT_TYPE":"PAYLOAD","REV_AT_EPOCH":"2180","MEAN_MOTION_DOT":"0.00003829","RCS_SIZE":"LARGE","GP_ID":"185350390","MEAN_MOTION_DDOT":"0.0000000000000","OBJECT_ID":"2021-038T","PERIOD":"95.591","NORAD_CAT_ID":"48370","REF_FRAME":"TEME","DECAY_DATE":null,"ELEMENT_SET_NO":"999","COUNTRY_CODE":"US","EPHEMERIS_TYPE":"0","BSTAR":"0.00027563000000","APOAPSIS":"548.883","RA_OF_ASC_NODE":"99.4373","MEAN_ANOMALY":"271.8243"},{"CENTER_NAME":"EARTH","PERIAPSIS":"545.644","LAUNCH_DATE":"2021-05-04","SEMIMAJOR_AXIS":"6925.365","MEAN_MOTION":"15.06394575","EPOCH":"2021-09-23T19:22:52.650912","CLASSIFICATION_TYPE":"U","FILE":"3125337","TLE_LINE1":"1 48371U 21038U   21266.80755383 -.00000620  00000-0 -22696-4 0  9992","TIME_SYSTEM":"UTC","MEAN_ELEMENT_THEORY":"SGP4","OBJECT_NAME":"STARLINK-2589","ARG_OF_PERICENTER":"84.6600","TLE_LINE2":"2 48371  53.0550  99.4563 0002290  84.6600 275.4650 15.06394575 21801","ECCENTRICITY":"0.00022900","SITE":"AFETR","APOAPSIS":"548.816","EPHEMERIS_TYPE":"0","BSTAR":"-0.00002269600000","MEAN_ANOMALY":"275.4650","RA_OF_ASC_NODE":"99.4563","PERIOD":"95.592","DECAY_DATE":null,"ELEMENT_SET_NO":"999","COUNTRY_CODE":"US","NORAD_CAT_ID":"48371","REF_FRAME":"TEME","MEAN_MOTION_DOT":"-0.00000620","RCS_SIZE":"LARGE","MEAN_MOTION_DDOT":"0.0000000000000","OBJECT_ID":"2021-038U","GP_ID":"185350134","OBJECT_TYPE":"PAYLOAD","INCLINATION":"53.0550","REV_AT_EPOCH":"2180"},{"MEAN_ELEMENT_THEORY":"SGP4","TIME_SYSTEM":"UTC","TLE_LINE1":"1 48372U 21038V   21266.80386934 -.00000416  00000-0 -90023-5 0  9998","ECCENTRICITY":"0.00022080","SITE":"AFETR","OBJECT_NAME":"STARLINK-2572","ARG_OF_PERICENTER":"90.7699","TLE_LINE2":"2 48372  53.0555  99.4692 0002208  90.7699 269.3543 15.06395855 21800","SEMIMAJOR_AXIS":"6925.361","MEAN_MOTION":"15.06395855","CENTER_NAME":"EARTH","LAUNCH_DATE":"2021-05-04","PERIAPSIS":"545.697","CLASSIFICATION_TYPE":"U","EPOCH":"2021-09-23T19:17:34.310976","FILE":"3125337","MEAN_MOTION_DDOT":"0.0000000000000","OBJECT_ID":"2021-038V","GP_ID":"185350891","RCS_SIZE":"MEDIUM","MEAN_MOTION_DOT":"-0.00000416","REV_AT_EPOCH":"2180","OBJECT_TYPE":"PAYLOAD","INCLINATION":"53.0555","MEAN_ANOMALY":"269.3543","RA_OF_ASC_NODE":"99.4692","APOAPSIS":"548.755","BSTAR":"-0.00000900230000","EPHEMERIS_TYPE":"0","COUNTRY_CODE":"US","ELEMENT_SET_NO":"999","DECAY_DATE":null,"REF_FRAME":"TEME","NORAD_CAT_ID":"48372","PERIOD":"95.592"},{"REF_FRAME":"TEME","NORAD_CAT_ID":"48373","COUNTRY_CODE":"US","ELEMENT_SET_NO":"999","DECAY_DATE":null,"PERIOD":"95.593","RA_OF_ASC_NODE":"99.4896","MEAN_ANOMALY":"276.1893","BSTAR":"0.00008525000000","EPHEMERIS_TYPE":"0","APOAPSIS":"548.660","REV_AT_EPOCH":"2180","INCLINATION":"53.0570","OBJECT_TYPE":"PAYLOAD","GP_ID":"185350896","OBJECT_ID":"2021-038W","MEAN_MOTION_DDOT":"0.0000000000000","RCS_SIZE":"LARGE","MEAN_MOTION_DOT":"0.00000988","FILE":"3125337","CLASSIFICATION_TYPE":"U","EPOCH":"2021-09-23T19:12:17.940960","MEAN_MOTION":"15.06389318","SEMIMAJOR_AXIS":"6925.381","PERIAPSIS":"545.833","LAUNCH_DATE":"2021-05-04","CENTER_NAME":"EARTH","SITE":"AFETR","ECCENTRICITY":"0.00020410","TLE_LINE2":"2 48373  53.0570  99.4896 0002041  83.9329 276.1893 15.06389318 21804","ARG_OF_PERICENTER":"83.9329","OBJECT_NAME":"STARLINK-2609","MEAN_ELEMENT_THEORY":"SGP4","TIME_SYSTEM":"UTC","TLE_LINE1":"1 48373U 21038W   21266.80020765  .00000988  00000-0  85250-4 0  9993"}];
